[{"OBJECT_NAME":"HULIANWANG JISHU SHIYAN 4A","OBJECT_ID":"2023-212A","EPOCH":"2026-03-09T22:03:53.647488","MEAN_MOTION":13.4144971,"ECCENTRICITY":3.582e-5,"INCLINATION":50.0026,"RA_OF_ASC_NODE":347.4174,"ARG_OF_PERICENTER":185.484,"MEAN_ANOMALY":174.6033,"EPHEMERIS_TYPE":0,"CLASSIFICATION_TYPE":"U","NORAD_CAT_ID":58691,"ELEMENT_SET_NO":999,"REV_AT_EPOCH":10792,"BSTAR":8.6099074e-5,"MEAN_MOTION_DOT":-8.0e-7,"MEAN_MOTION_DDOT":0},{"OBJECT_NAME":"SL-16 DEB","OBJECT_ID":"1992-093F","EPOCH":"2026-03-09T20:19:30.432000","MEAN_MOTION":13.72532958,"ECCENTRICITY":0.02086218,"INCLINATION":71.0106,"RA_OF_ASC_NODE":318.5756,"ARG_OF_PERICENTER":187.0326,"MEAN_ANOMALY":250.656,"EPHEMERIS_TYPE":0,"CLASSIFICATION_TYPE":"U","NORAD_CAT_ID":22291,"ELEMENT_SET_NO":999,"REV_AT_EPOCH":66211,"BSTAR":5.4421165e-5,"MEAN_MOTION_DOT":1.6e-7,"MEAN_MOTION_DDOT":0}]
